IRIDIUM 136             
1 42962U 17061H   24163.54452021  .00000011  00000+0 -30958-5 0  9999
2 42962  86.3958 332.6801 0001724  86.4935 273.6458 14.34216325349390
